NORAD_CAT_ID,OBJECT_NAME,OBJECT_TYPE,EPOCH,MEAN_MOTION,ECCENTRICITY,INCLINATION,RA_OF_ASC_NODE,ARG_OF_PERICENTER,MEAN_ANOMALY,BSTAR,MEAN_MOTION_DOT,MEAN_MOTION_DDOT,TLE_LINE0,TLE_LINE1,TLE_LINE2,SEMIMAJOR_AXIS,PERIOD,APOGEE,PERIGEE,DECAYED
53136.0,STARLINK-4152,PAYLOAD,2023-05-14 04:21:26,15.08831226,0.0001189,53.2173,120.2452,92.6265,267.4863,1.438e-05,-5.9e-07,0.0,0 STARLINK-4152,1 53136U 22083E   23134.18155535 -.00000059  00000-0  14380-4 0  9994,2 53136  53.2173 120.2452 0001189  92.6265 267.4863 15.08831226 46277,6917.907,95.438,540.595,538.95,0.0
53136.0,STARLINK-4152,PAYLOAD,2023-05-14 05:56:49,15.08831602,0.0001252,53.2166,119.9478,95.8475,264.2659,9.6873e-06,-1.34e-06,0.0,0 STARLINK-4152,1 53136U 22083E   23134.24779526 -.00000134  00000-0  96873-5 0  9995,2 53136  53.2166 119.9478 0001252  95.8475 264.2659 15.08831602 46648,6917.906,95.438,540.637,538.905,0.0
53136.0,STARLINK-4152,PAYLOAD,2023-05-14 15:29:08,15.08835222,0.0001212,53.2172,118.165,102.4822,257.6306,2.6548e-05,1.35e-06,0.0,0 STARLINK-4152,1 53136U 22083E   23134.64523346  .00000135  00000-0  26548-4 0  9997,2 53136  53.2172 118.1650 0001212 102.4822 257.6306 15.08835222 46709,6917.895,95.438,540.598,538.922,0.0
53136.0,STARLINK-4152,PAYLOAD,2023-05-15 04:12:12,15.08843483,0.0001197,53.217,115.7839,95.335,264.7779,7.4575e-05,8.99e-06,0.0,0 STARLINK-4152,1 53136U 22083E   23135.17514733  .00000899  00000-0  74575-4 0  9996,2 53136  53.2170 115.7839 0001197  95.3350 264.7779 15.08843483 46427,6917.87,95.437,540.563,538.907,0.0
53136.0,STARLINK-4152,PAYLOAD,2023-05-15 05:47:35,15.08844808,0.0001167,53.2173,115.4882,93.8084,266.3041,8.7423e-05,1.104e-05,0.0,0 STARLINK-4152,1 53136U 22083E   23135.24138620  .00001104  00000-0  87423-4 0  9997,2 53136  53.2173 115.4882 0001167  93.8084 266.3041 15.08844808 46791,6917.866,95.437,540.538,538.923,0.0
53136.0,STARLINK-4152,PAYLOAD,2023-05-15 15:19:54,15.08843308,0.0001107,53.2166,113.7044,93.3641,266.7478,-1.6514e-06,-3.14e-06,0.0,0 STARLINK-4152,1 53136U 22083E   23135.63882905 -.00000314  00000-0 -16514-5 0  9990,2 53136  53.2166 113.7044 0001107  93.3641 266.7478 15.08843308 46851,6917.87,95.437,540.501,538.969,0.0
53136.0,STARLINK-4152,PAYLOAD,2023-05-16 04:03:00,15.0882952,0.0001188,53.2173,111.326,95.7262,264.3865,1.8089e-05,0.0,0.0,0 STARLINK-4152,1 53136U 22083E   23136.16876083  .00000000  00000-0  18089-4 0  9997,2 53136  53.2173 111.3260 0001188  95.7262 264.3865 15.08829520 46570,6917.912,95.438,540.599,538.956,0.0
53136.0,STARLINK-4152,PAYLOAD,2023-05-16 05:38:24,15.08830277,0.0001196,53.2174,111.0288,97.4394,262.6734,2.4144e-05,9.6e-07,0.0,0 STARLINK-4152,1 53136U 22083E   23136.23500046  .00000096  00000-0  24144-4 0  9992,2 53136  53.2174 111.0288 0001196  97.4394 262.6734 15.08830277 46940,6917.91,95.438,540.602,538.948,0.0
53136.0,STARLINK-4152,PAYLOAD,2023-05-17 02:18:24,15.08839738,0.0001321,53.2185,107.1642,100.9579,259.1562,-3.8368e-07,-2.94e-06,0.0,0 STARLINK-4152,1 53136U 22083E   23137.09611764 -.00000294  00000-0 -38368-6 0  9994,2 53136  53.2185 107.1642 0001321 100.9579 259.1562 15.08839738 46713,6917.881,95.438,540.66,538.832,0.0
53136.0,STARLINK-4152,PAYLOAD,2023-05-17 07:04:33,15.08841735,0.0001297,53.218,106.2719,99.5745,260.5394,1.482e-05,-5.2e-07,0.0,0 STARLINK-4152,1 53136U 22083E   23137.29483563 -.00000052  00000-0  14820-4 0  9996,2 53136  53.2180 106.2719 0001297  99.5745 260.5394 15.08841735 47106,6917.875,95.437,540.637,538.843,0.0
53136.0,STARLINK-4152,PAYLOAD,2023-05-18 06:55:21,15.08837875,0.000123,53.2171,101.8092,85.8909,274.2224,7.1724e-05,8.54e-06,0.0,0 STARLINK-4152,1 53136U 22083E   23138.28843886  .00000854  00000-0  71724-4 0  9999,2 53136  53.2171 101.8092 0001230  85.8909 274.2224 15.08837875 46897,6917.887,95.438,540.603,538.901,0.0
53136.0,STARLINK-4152,PAYLOAD,2023-05-19 06:46:07,15.08847515,0.0001243,53.2173,97.3468,92.1211,267.9924,9.0824e-05,1.158e-05,0.0,0 STARLINK-4152,1 53136U 22083E   23139.28203126  .00001158  00000-0  90824-4 0  9997,2 53136  53.2173  97.3468 0001243  92.1211 267.9924 15.08847515 47042,6917.857,95.437,540.582,538.863,0.0
53136.0,STARLINK-4152,PAYLOAD,2023-05-20 03:26:08,15.08842519,0.0001258,53.2174,93.4794,100.4324,259.681,5.4463e-05,5.79e-06,0.0,0 STARLINK-4152,1 53136U 22083E   23140.14315362  .00000579  00000-0  54463-4 0  9995,2 53136  53.2174  93.4794 0001258 100.4324 259.6810 15.08842519 47171,6917.873,95.437,540.608,538.867,0.0
53136.0,STARLINK-4152,PAYLOAD,2023-05-20 06:36:54,15.08843211,0.0001255,53.2175,92.8848,100.3509,259.7625,6.1158e-05,6.86e-06,0.0,0 STARLINK-4152,1 53136U 22083E   23140.27563336  .00000686  00000-0  61158-4 0  9993,2 53136  53.2175  92.8848 0001255 100.3509 259.7625 15.08843211 47553,6917.871,95.437,540.604,538.867,0.0
53136.0,STARLINK-4152,PAYLOAD,2023-05-21 03:16:54,15.08853065,0.000116,53.2172,89.0225,89.5819,270.5306,3.4076e-05,2.55e-06,0.0,0 STARLINK-4152,1 53136U 22083E   23141.13674442  .00000255  00000-0  34076-4 0  9991,2 53136  53.2172  89.0225 0001160  89.5819 270.5306 15.08853065 47324,6917.84,95.437,540.508,538.903,0.0
53136.0,STARLINK-4152,PAYLOAD,2023-05-21 06:27:40,15.08852791,0.0001079,53.2171,88.4278,100.9312,259.1802,9.3598e-05,1.203e-05,0.0,0 STARLINK-4152,1 53136U 22083E   23141.26922202  .00001203  00000-0  93598-4 0  9993,2 53136  53.2171  88.4278 0001079 100.9312 259.1802 15.08852791 47700,6917.841,95.437,540.453,538.96,0.0
53136.0,STARLINK-4152,PAYLOAD,2023-05-21 20:46:11,15.08824121,9.38e-05,53.2182,85.7511,96.699,263.4109,-0.00012833,-2.329e-05,0.0,0 STARLINK-4152,1 53136U 22083E   23141.86540933 -.00002329  00000-0 -12833-3 0  9990,2 53136  53.2182  85.7511 0000938  96.6990 263.4109 15.08824121 47791,6917.929,95.439,540.443,539.145,0.0
53136.0,STARLINK-4152,PAYLOAD,2023-05-22 03:07:43,15.08830131,0.0001103,53.2174,84.5625,95.6021,264.5097,-8.2684e-05,-1.603e-05,0.0,0 STARLINK-4152,1 53136U 22083E   23142.13036631 -.00001603  00000-0 -82684-4 0  9992,2 53136  53.2174  84.5625 0001103  95.6021 264.5097 15.08830131 47475,6917.911,95.438,540.539,539.013,0.0
53136.0,STARLINK-4152,PAYLOAD,2023-05-22 12:40:02,15.08835531,0.0001157,53.2176,82.7786,97.6161,262.4962,-2.0145e-05,-6.08e-06,0.0,0 STARLINK-4152,1 53136U 22083E   23142.52780327 -.00000608  00000-0 -20145-4 0  9991,2 53136  53.2176  82.7786 0001157  97.6161 262.4962 15.08835531 47894,6917.894,95.438,540.559,538.959,0.0
53136.0,STARLINK-4152,PAYLOAD,2023-05-22 20:36:57,15.08840376,0.0001125,53.2176,81.2911,94.0217,266.0904,-2.2372e-05,-6.44e-06,0.0,0 STARLINK-4152,1 53136U 22083E   23142.85900227 -.00000644  00000-0 -22372-4 0  9994,2 53136  53.2176  81.2911 0001125  94.0217 266.0904 15.08840376 47941,6917.879,95.438,540.523,538.966,0.0
53136.0,STARLINK-4152,PAYLOAD,2023-05-23 01:23:06,15.08845679,0.0001173,53.2178,80.3997,96.2058,263.9067,3.1135e-05,2.08e-06,0.0,0 STARLINK-4152,1 53136U 22083E   23143.05771815  .00000208  00000-0  31135-4 0  9997,2 53136  53.2178  80.3997 0001173  96.2058 263.9067 15.08845679 47618,6917.863,95.437,540.539,538.917,0.0
53136.0,STARLINK-4152,PAYLOAD,2023-05-23 06:09:16,15.08846513,0.0001204,53.2172,79.5073,96.6035,263.5094,0.00014738,2.059e-05,0.0,0 STARLINK-4152,1 53136U 22083E   23143.25643775  .00002059  00000-0  14738-3 0  9997,2 53136  53.2172  79.5073 0001204  96.6035 263.5094 15.08846513 48009,6917.86,95.437,540.558,538.893,0.0
53136.0,STARLINK-4152,PAYLOAD,2023-05-23 23:38:31,15.08835955,0.0001238,53.2175,76.2373,103.1994,256.9136,0.00018881,2.718e-05,0.0,0 STARLINK-4152,1 53136U 22083E   23143.98508635  .00002718  00000-0  18881-3 0  9997,2 53136  53.2175  76.2373 0001238 103.1994 256.9136 15.08835955 47756,6917.893,95.438,540.614,538.901,0.0
53136.0,STARLINK-4152,PAYLOAD,2023-05-24 04:24:40,15.08839564,0.0001237,53.2173,75.3447,100.4441,259.6691,0.00027965,4.165e-05,0.0,0 STARLINK-4152,1 53136U 22083E   23144.18380546  .00004165  00000-0  27965-3 0  9990,2 53136  53.2173  75.3447 0001237 100.4441 259.6691 15.08839564 48142,6917.882,95.438,540.602,538.891,0.0
53136.0,STARLINK-4152,PAYLOAD,2023-05-26 02:30:51,15.08846573,0.0001289,53.2187,66.7185,93.5906,266.5233,0.00010672,1.411e-05,0.0,0 STARLINK-4152,1 53136U 22083E   23146.10476173  .00001411  00000-0  10672-3 0  9994,2 53136  53.2187  66.7185 0001289  93.5906 266.5233 15.08846573 48074,6917.86,95.437,540.617,538.834,0.0
53136.0,STARLINK-4152,PAYLOAD,2023-05-27 00:46:16,15.08836781,0.0001231,53.2185,62.5577,93.8173,266.296,-7.4031e-06,-4.06e-06,0.0,0 STARLINK-4152,1 53136U 22083E   23147.03213195 -.00000406  00000-0 -74031-5 0  9996,2 53136  53.2185  62.5577 0001231  93.8173 266.2960 15.08836781 48217,6917.89,95.438,540.607,538.904,0.0
53136.0,STARLINK-4152,PAYLOAD,2023-05-27 21:26:16,15.0883882,0.0001442,53.2194,58.6927,107.174,252.941,0.00015644,2.203e-05,0.0,0 STARLINK-4152,1 53136U 22083E   23147.89324555  .00002203  00000-0  15644-3 0  9991,2 53136  53.2194  58.6927 0001442 107.1740 252.9410 15.08838820 48707,6917.884,95.438,540.747,538.751,0.0
53136.0,STARLINK-4152,PAYLOAD,2023-05-28 00:37:01,15.0885434,0.0001298,53.2193,58.0986,71.9516,288.1617,0.00010622,1.404e-05,0.0,0 STARLINK-4152,1 53136U 22083E   23148.02571750  .00001404  00000-0  10622-3 0  9991,2 53136  53.2193  58.0986 0001298  71.9516 288.1617 15.08854340 48360,6917.837,95.437,540.599,538.804,0.0
53136.0,STARLINK-4152,PAYLOAD,2023-05-28 21:17:03,15.08844739,0.0001176,53.2194,54.2336,74.6233,285.4889,9.7476e-05,1.264e-05,0.0,0 STARLINK-4152,1 53136U 22083E   23148.88684505  .00001264  00000-0  97476-4 0  9995,2 53136  53.2194  54.2336 0001176  74.6233 285.4889 15.08844739 48855,6917.866,95.437,540.544,538.917,0.0
53136.0,STARLINK-4152,PAYLOAD,2023-05-29 00:27:49,15.08850518,0.0001168,53.2187,53.6378,84.259,275.8535,0.00014855,2.078e-05,0.0,0 STARLINK-4152,1 53136U 22083E   23149.01931967  .00002078  00000-0  14855-3 0  9991,2 53136  53.2187  53.6378 0001168  84.2590 275.8535 15.08850518 48516,6917.848,95.437,540.521,538.905,0.0
